GONETS-M 15             
1 44906U 19096B   24083.15302815  .00000016  00000+0  42975-4 0  9997
2 44906  82.5240 230.8320 0016313 155.0502 205.1370 12.42868627192305
GONETS-M 16             
1 44907U 19096C   24083.50095622  .00000021  00000+0  79523-4 0  9997
2 44907  82.5187 229.9337 0011907 192.7951 167.2828 12.42869749192349
RS-44 & BREEZE-KM R/B   
1 44909U 19096E   24082.72107576  .00000023  00000+0  55775-4 0  9999
2 44909  82.5248 162.2268 0216384 253.2537 104.4721 12.79727683197913
JILIN-1 KUANFU 01       
1 45016U 20003A   24083.80927637  .00010060  00000+0  60082-3 0  9995
2 45016  97.5876 157.0854 0014606  38.1052 322.1207 15.11213198232158
XINGYUN-2 01            
1 45602U 20028A   24083.86434640  .00005149  00000+0  36622-3 0  9991
2 45602  97.4541  87.4139 0013373 117.8290 242.4293 15.05006607211905
XINGYUN-2 02            
1 45603U 20028B   24083.85055564  .00005758  00000+0  40960-3 0  9991
2 45603  97.5192  96.3778 0012650 179.5575 180.5665 15.04970571211909
HAIYANG-1D              
1 45721U 20036A   24083.80641856  .00000588  00000+0  22598-3 0  9994
2 45721  98.5831  24.8950 0002655  28.9556 331.1775 14.34085071198105
M2 PATHFINDER           
1 45727U 20037E   24083.01242222  .00004651  00000+0  41590-3 0  9996
2 45727  97.7711 259.9714 0012086  54.6601 305.5748 14.96314369203053
GAOFEN DUOMO (GFDM)     
1 45856U 20042A   24083.85469375  .00002673  00000+0  38786-3 0  9992
2 45856  97.8746 157.1279 0011473 194.4880 165.6003 14.76788226200670
BY70-2                  
1 45857U 20042B   24083.84980300  .00112096  00000+0  64932-2 0  9990
2 45857  97.9113 173.2144 0007240 164.2081 195.9375 15.11666297201587
ZINYUAN-3               
1 45939U 20051A   24083.86696567  .00012537  00000+0  56402-3 0  9995
2 45939  97.3704 161.9892 0011554 311.7500  48.2748 15.21180739203398
TIANQI-10               
1 45941U 20051C   24083.80662863  .00158752  00000+0  13756-2 0  9998
2 45941  97.4017 188.1506 0006289 195.4213 164.6858 15.68627756204975
Q-SAT                   
1 46026U 20054B   24083.86349672  .00149515  00000+0  13875-2 0  9991
2 46026  97.3404 176.9154 0007630 220.9651 139.1037 15.66950389203024
GLOBAL-8                
1 46089U 20055BQ  24083.89572439  .00870041  38954-3  13595-2 0  9990
2 46089  52.9738 330.7183 0005831 218.1436 141.9181 16.03467729211093
TIANTUO 5               
1 46234U 20058C   24083.85745275  .00029339  00000+0  84799-3 0  9999
2 46234  97.3112 142.3225 0011569 327.2735  32.7791 15.35529577199674
TYVAK-0172              
1 46267U 20059C   24083.53719137  .00018120  00000+0  13874-2 0  9990
2 46267  97.8335 285.2102 0001224 193.1770 166.9423 15.01926879193887
ION-MK01                
1 46274U 20061C   24083.74442780  .00017795  00000+0  65997-3 0  9992
2 46274  97.3092 149.2127 0005289  43.4929 316.6727 15.27649708196924
UPMSAT-2                
1 46276U 20061E   24083.74665059  .00022684  00000+0  76812-3 0  9991
2 46276  97.3066 151.1647 0002410  91.0629 269.0888 15.30589523197095
NEMO-HD                 
1 46277U 20061F   24083.85504381  .00011846  00000+0  48284-3 0  9994
2 46277  97.3071 148.6067 0002921  89.0648 271.0925 15.24601898196934
SIMBA                   
1 46279U 20061H   24083.76100690  .00093354  00000+0  20377-2 0  9997
2 46279  97.3595 155.1090 0003381 161.8380 198.2989 15.43860753196690
TRISAT                  
1 46280U 20061J   24083.83980962  .00075502  00000+0  18895-2 0  9992
2 46280  97.3468 153.4107 0003218 157.3562 202.7827 15.39815783196647
PICASSO-BEL             
1 46281U 20061K   24083.69030630  .00597938  00000+0  30435-2 0  9991
2 46281  97.3484 161.2471 0005561 247.0987 112.9694 15.79846323197124
DIDO 3                  
1 46284U 20061N   24083.16578432  .00026040  00000+0  93018-3 0  9991
2 46284  97.3586 149.7149 0003485 152.2123 207.9304 15.28814971196271
FLOCK 4V-14             
1 46286U 20061Q   24083.78716241  .00047148  00000+0  12538-2 0  9992
2 46286  97.3645 156.8353 0003613 136.5142 223.6388 15.38081335196812
AMICALSAT               
1 46287U 20061R   24083.73365292  .00040012  00000+0  13270-2 0  9991
2 46287  97.3594 151.3218 0002782 157.5293 202.6071 15.31141601196465
3CAT-5A                 
1 46292U 20061W   24083.73966519  .00012759  00000+0  59912-3 0  9997
2 46292  97.3587 146.6924 0004104 135.3672 224.7894 15.19750908196144
3CAT-5B                 
1 46293U 20061X   24082.75295791  .00011744  00000+0  54904-3 0  9995
2 46293  97.3592 146.0071 0004075 134.1933 225.9637 15.19922318195987
OSM-1 CICERO            
1 46294U 20061Y   24083.72758708  .00027595  00000+0  10363-2 0  9997
2 46294  97.3608 150.5965 0003810 128.6290 231.5291 15.27153304196393
FLOCK 4V-10             
1 46296U 20061AA  24083.72705278  .00040833  00000+0  10968-2 0  9994
2 46296  97.3647 156.9945 0002606 138.0700 222.0744 15.37808258196775
FLOCK 4V-13             
1 46297U 20061AB  24083.75618798  .00040972  00000+0  11269-2 0  9997
2 46297  97.3635 156.9299 0001511 122.9789 237.1601 15.37074125196753
TTU100                  
1 46312U 20061AS  24083.84246040  .00095948  00000+0  19588-2 0  9997
2 46312  97.3646 158.1005 0001798 112.3946 247.7494 15.45829044196852
KEPLER-2 (TARS)         
1 46319U 20061AZ  24083.71770325  .00043376  00000+0  13251-2 0  9997
2 46319  97.3620 153.9873 0002328  94.1633 265.9875 15.33756945196634
NAPA-1                  
1 46320U 20061BA  24083.84547714  .00019020  00000+0  84200-3 0  9999
2 46320  97.3636 149.0227 0003819  87.0235 273.1438 15.21692061196313
JILIN-1 GAOFEN 3B       
1 46454U 20065A   24083.88506361  .00021314  00000+0  90375-3 0  9997
2 46454  97.3540 130.4132 0012378 151.8293 208.3616 15.23074182194437
JILIN-1 GAOFEN 3E       
1 46457U 20065D   24083.83118194  .00020333  00000+0  86698-3 0  9991
2 46457  97.3550 130.4597 0010731 169.4777 190.6686 15.22910929194425
JILIN-1 GAOFEN 3F       
1 46458U 20065E   24083.87176340  .00021022  00000+0  89549-3 0  9997
2 46458  97.3485 129.3942 0011362 159.6344 200.5348 15.22931528194431
JILIN-1 GAOFEN 3G       
1 46459U 20065F   24083.85451614  .00020491  00000+0  87052-3 0  9992
2 46459  97.3600 131.5062 0012049 165.0518 195.1077 15.23021303194436
JILIN-1 GAOFEN 3H       
1 46460U 20065G   24083.88621998  .00020577  00000+0  88071-3 0  9998
2 46460  97.3496 129.5964 0011421 161.7809 198.3840 15.22773674194435
JILIN-1 GAOFEN 3J       
1 46462U 20065J   24083.83177658  .00020884  00000+0  88669-3 0  9998
2 46462  97.3538 130.4393 0011139 159.1285 201.0408 15.23046719194432
HAIYANG-2C              
1 46469U 20066A   24083.82536785  .00000035  00000+0  10510-3 0  9991
2 46469  65.9947  85.3524 0013601 256.4908 103.4645 13.83375710176996
HJ-2A                   
1 46478U 20067A   24083.85333585  .00002375  00000+0  34805-3 0  9990
2 46478  97.9427 167.2503 0001906  83.6925 276.4502 14.76518523187949
HJ-2B                   
1 46479U 20067B   24083.82096324  .00002529  00000+0  37039-3 0  9998
2 46479  97.9467 167.7392 0002139 109.3434 250.8008 14.76491713187943
GONETS-M 17             
1 46486U 20068A   24083.84781987  .00000058  00000+0  34519-3 0  9990
2 46486  82.4963 134.7199 0023079  17.0934 343.0918 12.42905265158065
GONETS-M 18             
1 46487U 20068B   24083.81493760  .00000049  00000+0  28256-3 0  9998
2 46487  82.4916 134.1715 0020097  14.0807 346.0829 12.42886242158051
GONETS-M 19             
1 46488U 20068C   24083.87048263  .00000069  00000+0  42986-3 0  9997
2 46488  82.4941 134.4188 0014168  31.0520 329.1394 12.42879937158074
MEZNSAT                 
1 46489U 20068D   24083.46314798  .00031981  00000+0  13968-2 0  9996
2 46489  97.8024  45.8052 0010793 221.2062 138.8359 15.22002650191711
YARILO 1                
1 46490U 20068E   24083.45489441  .00039803  00000+0  16434-2 0  9997
2 46490  97.8036  46.6490 0010288 220.2319 139.8157 15.23863539191768
YARILO 2                
1 46491U 20068F   24083.46312977  .00035123  00000+0  14686-2 0  9996
2 46491  97.8033  46.3910 0010481 222.6417 137.4006 15.23464928191744
LACUNASAT-3             
1 46492U 20068G   24083.45996159  .00040968  00000+0  16209-2 0  9992
2 46492  97.8015  47.0456 0009567 216.5194 143.5391 15.25296517191772
DEKART                  
1 46493U 20068H   24083.86760946  .00013884  00000+0  78520-3 0  9993
2 46493  97.8078  42.2447 0013250 243.5520 116.4351 15.13120970191485
NORBI                   
1 46494U 20068J   24083.19125682  .00012350  00000+0  67037-3 0  9990
2 46494  97.8072  42.1975 0012452 244.5030 115.4914 15.14626558191427
SALSAT                  
1 46495U 20068K   24083.46082088  .00011092  00000+0  65661-3 0  9996
2 46495  97.8077  40.7504 0012380 242.6482 117.3488 15.11544191191353
ICEYE-X6                
1 46497U 20068M   24083.74816212  .00007617  00000+0  60491-3 0  9997
2 46497  97.9204  38.0758 0004950 330.6204  29.4740 15.00764732190854
LEMUR-2-SLICERS         
1 46500U 20068Q   24083.85779301  .00052682  00000+0  15490-2 0  9991
2 46500  97.7845  48.2768 0003878 207.7925 152.3110 15.34916050191907
LEMUR-2-SUSURRUS        
1 46502U 20068S   24083.85854748  .00085315  00000+0  24855-2 0  9996
2 46502  97.7877  48.3405 0004035 204.3583 155.7469 15.35050840191903
NETSAT-4                
1 46504U 20068U   24083.81848865  .00018058  00000+0  10268-2 0  9990
2 46504  97.7978  38.8437 0008288 300.7505  59.2909 15.12909680191250
NETSAT-3                
1 46505U 20068V   24083.84062211  .00016850  00000+0  97063-3 0  9994
2 46505  97.7950  38.4730 0007712 312.3506  47.7070 15.12461980191251
NETSAT-1                
1 46506U 20068W   24083.80953250  .00013430  00000+0  80095-3 0  9991
2 46506  97.7975  38.0839 0006905 326.1194  33.9594 15.11265488191223
NETSAT-2                
1 46507U 20068X   24083.10311257  .00013841  00000+0  79133-3 0  9997
2 46507  97.7959  37.7734 0006283 338.0332  22.0628 15.12787143191091
